{
  "type": "FeatureCollection",
  "name": "GeoLibre sample parks",
  "features": [
    {
      "type": "Feature",
      "id": "central-park",
      "properties": { "name": "Central Park", "kind": "park", "area_acres": 843 },
      "geometry": {
        "type": "Polygon",
        "coordinates": [[[-73.9819, 40.7681], [-73.9580, 40.8005], [-73.9498, 40.7968], [-73.9737, 40.7644], [-73.9819, 40.7681]]]
      }
    },
    {
      "type": "Feature",
      "id": "prospect-park",
      "properties": { "name": "Prospect Park", "kind": "park", "area_acres": 526 },
      "geometry": {
        "type": "Polygon",
        "coordinates": [[[-73.9731, 40.6680], [-73.9614, 40.6728], [-73.9558, 40.6512], [-73.9688, 40.6482], [-73.9731, 40.6680]]]
      }
    }
  ]
}
